GLOBALSTAR M001         
1 25162U 98008A   24365.66307223 -.00000111  00000+0 -11292-3 0  9992
2 25162  52.0030 103.7246 0001121 218.0451 288.3852 12.38204590222834
GLOBALSTAR M004         
1 25163U 98008B   24366.50045708 -.00000047  00000+0  31623-3 0  9991
2 25163  51.9973 205.7204 0001940 287.1044  82.7831 12.63383748240597
GLOBALSTAR M002         
1 25164U 98008C   24366.18109896 -.00000114  00000+0 -74343-3 0  9997
2 25164  52.0032 301.4519 0000792 182.0170 178.0647 11.61506600164619
GLOBALSTAR M003         
1 25165U 98008D   24365.89784622  .00000022  00000+0  11905-2 0  9991
2 25165  51.9986 274.6050 0007862 318.8038 135.0577 12.12062957212814
GLOBALSTAR M014         
1 25306U 98023A   24366.39801400 -.00000038  00000+0  74550-3 0  9999
2 25306  51.9812 227.6615 0002107  62.7933 119.3968 11.65477446171598
GLOBALSTAR M006         
1 25307U 98023B   24366.46411561 -.00000035  00000+0  83710-3 0  9998
2 25307  51.9941 273.6990 0003381 148.2172  23.3505 11.58170928197506
GLOBALSTAR M015         
1 25308U 98023C   24366.41917594 -.00000068  00000+0  12502-3 0  9998
2 25308  51.9847   4.5911 0012753 137.5614  44.3433 11.48855411175179
GLOBALSTAR M008         
1 25309U 98023D   24366.37811249 -.00000026  00000+0  55384-3 0  9993
2 25309  51.9990 324.5738 0002293 175.0491 322.2780 12.36059490217406
